{"type": "FeatureCollection", "features": [ {"type": "Feature", "properties": {"norad_id": 46989, "name": "FENGYUN 1C DEB", "group": "fengyun-1c-debris", "lat": 7.5327270286144055, "lon": -17.733344499428693, "alt_km": 1085.7591539673303, "timestamp": "2025-12-25T03:55:56.648703+00:00", "meta": {"OBJECT_NAME": "FENGYUN 1C DEB", "OBJECT_ID": "1999-025EZP", "EPOCH": "2025-12-24T05:21:04.103424", "MEAN_MOTION": 13.7943268, "ECCENTRICITY": 0.02440893, "INCLINATION": 99.5054, "RA_OF_ASC_NODE": 160.0523, "ARG_OF_PERICENTER": 306.9712, "MEAN_ANOMALY": 237.4301, "EPHEMERIS_TYPE": 0, "CLASSIFICATION_TYPE": "U", "NORAD_CAT_ID": 46989, "ELEMENT_SET_NO": 999, "REV_AT_EPOCH": 71200, "BSTAR": 0.0046273535, "MEAN_MOTION_DOT": 5.906e-05, "MEAN_MOTION_DDOT": 0}, "tle": {"line1": "1 46989U 99025EZP 25358.22296416  .00005906  00000+0  46274-2 0  9990", "line2": "2 46989  99.5054 160.0523 0244089 306.9712 237.4301 13.79432680712005"}}, "geometry": {"type": "Point", "coordinates": [-17.733344499428693, 7.5327270286144055]}}, {"type": "Feature", "properties": {"norad_id": 46990, "name": "FENGYUN 1C DEB", "group": "fengyun-1c-debris", "lat": 45.24873986486759, "lon": 30.92146878146359, "alt_km": 888.5313554071345, "timestamp": "2025-12-25T03:55:56.648714+00:00", "meta": {"OBJECT_NAME": "FENGYUN 1C DEB", "OBJECT_ID": "1999-025EZQ", "EPOCH": "2025-12-23T19:34:04.155168", "MEAN_MOTION": 14.24013723, "ECCENTRICITY": 0.03579328, "INCLINATION": 98.2311, "RA_OF_ASC_NODE": 201.2595, "ARG_OF_PERICENTER": 27.8248, "MEAN_ANOMALY": 33.133, "EPHEMERIS_TYPE": 0, "CLASSIFICATION_TYPE": "U", "NORAD_CAT_ID": 46990, "ELEMENT_SET_NO": 999, "REV_AT_EPOCH": 8687, "BSTAR": 0.0020956671, "MEAN_MOTION_DOT": 9.355e-05, "MEAN_MOTION_DDOT": 0}, "tle": {"line1": "1 46990U 99025EZQ 25357.81532587  .00009355  00000+0  20957-2 0  9990", "line2": "2 46990  98.2311 201.2595 0357932  27.8248  33.1330 14.24013723 86877"}}, "geometry": {"type": "Point", "coordinates": [30.92146878146359, 45.24873986486759]}}, {"type": "Feature", "properties": {"norad_id": 46992, "name": "FENGYUN 1C DEB", "group": "fengyun-1c-debris", "lat": -58.024649730769475, "lon": 151.05765566747078, "alt_km": 918.3845539507574, "timestamp": "2025-12-25T03:55:56.648724+00:00", "meta": {"OBJECT_NAME": "FENGYUN 1C DEB", "OBJECT_ID": "1999-025EZS", "EPOCH": "2025-12-24T16:30:54.082944", "MEAN_MOTION": 14.0071494, "ECCENTRICITY": 0.0072427, "INCLINATION": 98.9011, "RA_OF_ASC_NODE": 345.133, "ARG_OF_PERICENTER": 127.6993, "MEAN_ANOMALY": 233.0769, "EPHEMERIS_TYPE": 0, "CLASSIFICATION_TYPE": "U", "NORAD_CAT_ID": 46992, "ELEMENT_SET_NO": 999, "REV_AT_EPOCH": 61124, "BSTAR": 0.0004524, "MEAN_MOTION_DOT": 6.47e-06, "MEAN_MOTION_DDOT": 0}, "tle": {"line1": "1 46992U 99025EZS 25358.68812596  .00000647  00000+0  45240-3 0  9997", "line2": "2 46992  98.9011 345.1330 0072427 127.6993 233.0769 14.00714940611242"}}, "geometry": {"type": "Point", "coordinates": [151.05765566747078, -58.024649730769475]}}, {"type": "Feature", "properties": {"norad_id": 46993, "name": "FENGYUN 1C DEB", "group": "fengyun-1c-debris", "lat": 67.11459706982949, "lon": -42.214328418920175, "alt_km": 1171.0795598425948, "timestamp": "2025-12-25T03:55:56.648734+00:00", "meta": {"OBJECT_NAME": "FENGYUN 1C DEB", "OBJECT_ID": "1999-025EZT", "EPOCH": "2025-12-18T13:48:38.255328", "MEAN_MOTION": 13.69154142, "ECCENTRICITY": 0.02625123, "INCLINATION": 98.7233, "RA_OF_ASC_NODE": 110.4847, "ARG_OF_PERICENTER": 283.8917, "MEAN_ANOMALY": 132.0062, "EPHEMERIS_TYPE": 0, "CLASSIFICATION_TYPE": "U", "NORAD_CAT_ID": 46993, "ELEMENT_SET_NO": 999, "REV_AT_EPOCH": 60337, "BSTAR": 0.00040493614, "MEAN_MOTION_DOT": 4.06e-06, "MEAN_MOTION_DDOT": 0}, "tle": {"line1": "1 46993U 99025EZT 25352.57544277  .00000406  00000+0  40494-3 0  9997", "line2": "2 46993  98.7233 110.4847 0262512 283.8917 132.0062 13.69154142603375"}}, "geometry": {"type": "Point", "coordinates": [-42.214328418920175, 67.11459706982949]}}, {"type": "Feature", "properties": {"norad_id": 46995, "name": "FENGYUN 1C DEB", "group": "fengyun-1c-debris", "lat": 24.08690578657617, "lon": -95.95811288834227, "alt_km": 893.8659640599944, "timestamp": "2025-12-25T03:55:56.648744+00:00", "meta": {"OBJECT_NAME": "FENGYUN 1C DEB", "OBJECT_ID": "1999-025EZV", "EPOCH": "2025-12-23T04:26:24.187488", "MEAN_MOTION": 13.8641105, "ECCENTRICITY": 0.01880773, "INCLINATION": 98.595, "RA_OF_ASC_NODE": 78.3463, "ARG_OF_PERICENTER": 89.717, "MEAN_ANOMALY": 272.5537, "EPHEMERIS_TYPE": 0, "CLASSIFICATION_TYPE": "U", "NORAD_CAT_ID": 46995, "ELEMENT_SET_NO": 999, "REV_AT_EPOCH": 60613, "BSTAR": 0.0022808923, "MEAN_MOTION_DOT": 3e-05, "MEAN_MOTION_DDOT": 0}, "tle": {"line1": "1 46995U 99025EZV 25357.18500217  .00003000  00000+0  22809-2 0  9999", "line2": "2 46995  98.5950  78.3463 0188077  89.7170 272.5537 13.86411050606131"}}, "geometry": {"type": "Point", "coordinates": [-95.95811288834227, 24.08690578657617]}}, {"type": "Feature", "properties": {"norad_id": 46997, "name": "FENGYUN 1C DEB", "group": "fengyun-1c-debris", "lat": 4.095355391401439, "lon": -140.12684959430354, "alt_km": 810.4118248527266, "timestamp": "2025-12-25T03:55:56.648755+00:00", "meta": {"OBJECT_NAME": "FENGYUN 1C DEB", "OBJECT_ID": "1999-025EZX", "EPOCH": "2025-12-14T20:44:05.032032", "MEAN_MOTION": 14.28011803, "ECCENTRICITY": 0.00246638, "INCLINATION": 98.5587, "RA_OF_ASC_NODE": 29.1623, "ARG_OF_PERICENTER": 329.7037, "MEAN_ANOMALY": 205.3871, "EPHEMERIS_TYPE": 0, "CLASSIFICATION_TYPE": "U", "NORAD_CAT_ID": 46997, "ELEMENT_SET_NO": 999, "REV_AT_EPOCH": 62481, "BSTAR": 0.00094694744, "MEAN_MOTION_DOT": 2.314e-05, "MEAN_MOTION_DDOT": 0}, "tle": {"line1": "1 46997U 99025EZX 25348.86394713  .00002314  00000+0  94695-3 0  9998", "line2": "2 46997  98.5587  29.1623 0024663 329.7037 205.3871 14.28011803624819"}}, "geometry": {"type": "Point", "coordinates": [-140.12684959430354, 4.095355391401439]}}, {"type": "Feature", "properties": {"norad_id": 47001, "name": "FENGYUN 1C DEB", "group": "fengyun-1c-debris", "lat": -50.988248907362525, "lon": 69.90754995992981, "alt_km": 754.4923061368954, "timestamp": "2025-12-25T03:55:56.648765+00:00", "meta": {"OBJECT_NAME": "FENGYUN 1C DEB", "OBJECT_ID": "1999-025FAB", "EPOCH": "2025-12-21T21:42:56.731392", "MEAN_MOTION": 14.38539606, "ECCENTRICITY": 0.00511443, "INCLINATION": 99.3039, "RA_OF_ASC_NODE": 54.7035, "ARG_OF_PERICENTER": 22.5834, "MEAN_ANOMALY": 337.7586, "EPHEMERIS_TYPE": 0, "CLASSIFICATION_TYPE": "U", "NORAD_CAT_ID": 47001, "ELEMENT_SET_NO": 999, "REV_AT_EPOCH": 74046, "BSTAR": 0.0013955962, "MEAN_MOTION_DOT": 4.285e-05, "MEAN_MOTION_DDOT": 0}, "tle": {"line1": "1 47001U 99025FAB 25355.90482328  .00004285  00000+0  13956-2 0  9997", "line2": "2 47001  99.3039  54.7035 0051144  22.5834 337.7586 14.38539606740465"}}, "geometry": {"type": "Point", "coordinates": [69.90754995992981, -50.988248907362525]}}, {"type": "Feature", "properties": {"norad_id": 47005, "name": "FENGYUN 1C DEB", "group": "fengyun-1c-debris", "lat": -60.32224756537579, "lon": -108.33658056879501, "alt_km": 822.4929486210267, "timestamp": "2025-12-25T03:55:56.648775+00:00", "meta": {"OBJECT_NAME": "FENGYUN 1C DEB", "OBJECT_ID": "1999-025FAF", "EPOCH": "2025-12-21T12:05:43.680192", "MEAN_MOTION": 14.11117395, "ECCENTRICITY": 0.00655889, "INCLINATION": 99.6008, "RA_OF_ASC_NODE": 85.032, "ARG_OF_PERICENTER": 219.2127, "MEAN_ANOMALY": 159.8182, "EPHEMERIS_TYPE": 0, "CLASSIFICATION_TYPE": "U", "NORAD_CAT_ID": 47005, "ELEMENT_SET_NO": 999, "REV_AT_EPOCH": 82891, "BSTAR": 0.0018102005, "MEAN_MOTION_DOT": 3.277e-05, "MEAN_MOTION_DDOT": 0}, "tle": {"line1": "1 47005U 99025FAF 25355.50397778  .00003277  00000+0  18102-2 0  9999", "line2": "2 47005  99.6008  85.0320 0065588 219.2127 159.8182 14.11117395828919"}}, "geometry": {"type": "Point", "coordinates": [-108.33658056879501, -60.32224756537579]}}, {"type": "Feature", "properties": {"norad_id": 47007, "name": "FENGYUN 1C DEB", "group": "fengyun-1c-debris", "lat": 62.67891263059417, "lon": 56.06110170416741, "alt_km": 914.7602405784064, "timestamp": "2025-12-25T03:55:56.648786+00:00", "meta": {"OBJECT_NAME": "FENGYUN 1C DEB", "OBJECT_ID": "1999-025FAH", "EPOCH": "2025-12-24T20:31:18.466176", "MEAN_MOTION": 13.97325312, "ECCENTRICITY": 0.0237213, "INCLINATION": 98.2081, "RA_OF_ASC_NODE": 219.5608, "ARG_OF_PERICENTER": 19.6973, "MEAN_ANOMALY": 341.3167, "EPHEMERIS_TYPE": 0, "CLASSIFICATION_TYPE": "U", "NORAD_CAT_ID": 47007, "ELEMENT_SET_NO": 999, "REV_AT_EPOCH": 79018, "BSTAR": 0.0025662, "MEAN_MOTION_DOT": 4.534e-05, "MEAN_MOTION_DDOT": 0}, "tle": {"line1": "1 47007U 99025FAH 25358.85507484  .00004534  00000+0  25662-2 0  9995", "line2": "2 47007  98.2081 219.5608 0237213  19.6973 341.3167 13.97325312790188"}}, "geometry": {"type": "Point", "coordinates": [56.06110170416741, 62.67891263059417]}}, {"type": "Feature", "properties": {"norad_id": 47009, "name": "FENGYUN 1C DEB", "group": "fengyun-1c-debris", "lat": -79.65734176649097, "lon": 101.98011429472221, "alt_km": 911.716312337523, "timestamp": "2025-12-25T03:55:56.648819+00:00", "meta": {"OBJECT_NAME": "FENGYUN 1C DEB", "OBJECT_ID": "1999-025FAK", "EPOCH": "2025-12-21T05:14:14.201088", "MEAN_MOTION": 13.37315869, "ECCENTRICITY": 0.0351179, "INCLINATION": 98.9317, "RA_OF_ASC_NODE": 338.0153, "ARG_OF_PERICENTER": 238.1062, "MEAN_ANOMALY": 118.5455, "EPHEMERIS_TYPE": 0, "CLASSIFICATION_TYPE": "U", "NORAD_CAT_ID": 47009, "ELEMENT_SET_NO": 999, "REV_AT_EPOCH": 58922, "BSTAR": 0.00028582, "MEAN_MOTION_DOT": 1.74e-06, "MEAN_MOTION_DDOT": 0}, "tle": {"line1": "1 47009U 99025FAK 25355.21821992  .00000174  00000+0  28582-3 0  9998", "line2": "2 47009  98.9317 338.0153 0351179 238.1062 118.5455 13.37315869589221"}}, "geometry": {"type": "Point", "coordinates": [101.98011429472221, -79.65734176649097]}}]}